GPS BIIR-08             
1 27663U 03005A   26116.26699801 -.00000048  00000+0  00000+0 0  9990
2 27663  54.8927 217.0313 0148193  52.9603 318.0024  2.00563332170278
GPS BIIR-11             
1 28190U 04009A   26116.53875589 -.00000049  00000+0  00000+0 0  9991
2 28190  54.8736 277.7725 0113683 170.8393 190.7377  2.00556343161915
GPS BIIR-13             
1 28474U 04045A   26116.15187683 -.00000073  00000+0  00000+0 0  9992
2 28474  55.1657 326.9919 0170077 314.9761 192.5282  2.00553461157387
GPS BIIR-14M            
1 28874U 05038A   26116.51028610 -.00000049  00000+0  00000+0 0  9996
2 28874  54.9216 275.2615 0127781 295.8485  71.6096  2.00569234150807
METEOSAT-9 (MSG-2)      
1 28912U 05049B   26116.01263209  .00000116  00000+0  00000+0 0  9995
2 28912   9.2468  54.6715 0000458 338.0288 231.5157  1.00274547  6471
GPS BIIR-16M            
1 29601U 06052A   26114.57003035 -.00000038  00000+0  00000+0 0  9998
2 29601  54.9441 216.1310 0086480  90.2480 270.7556  2.00555028142332
GPS BIIR-17M            
1 32260U 07047A   26116.37086677  .00000007  00000+0  00000+0 0  9996
2 32260  54.0582  82.2000 0164775  86.4922 275.3708  2.00557876135777
GPS BIIR-18M            
1 32384U 07062A   26115.93574941 -.00000042  00000+0  00000+0 0  9997
2 32384  55.0752 276.2515 0034552 162.3630  10.5363  2.00556812134469
GOES 14                 
1 35491U 09033A   26116.81302976 -.00000059  00000+0  00000+0 0  9992
2 35491   1.5594  83.6284 0001746 313.9108 280.5383  1.00116648  6071
GOES 15                 
1 36411U 10008A   26116.88980509  .00000012  00000+0  00000+0 0  9998
2 36411   1.1427  83.7781 0003979  23.7278 130.9671  1.00272498 59120
GSAT0101 (GALILEO-PFM)  
1 37846U 11060A   26116.22899249 -.00000091  00000+0  00000+0 0  9996
2 37846  57.0096 343.1709 0003765  27.2500 332.8105  1.70475694 90230
GSAT0102 (GALILEO-FM2)  
1 37847U 11060B   26116.45263183 -.00000091  00000+0  00000+0 0  9994
2 37847  57.0107 343.1653 0004708   9.1421 173.7389  1.70475958 90241
LUCH 5A                 
1 37951U 11074B   26116.89372149 -.00000055  00000+0  00000+0 0  9996
2 37951   8.6266  74.5466 0002737 304.8764 324.1316  1.00272956 52535
METEOSAT-10 (MSG-3)     
1 38552U 12035B   26116.63663972 -.00000015  00000+0  00000+0 0  9997
2 38552   4.5523  61.2377 0002095 312.6097  70.1584  1.00267982 50346
SARSAT 13 (METOP-B)     
1 38771U 12049A   26116.80379360  .00000109  00000+0  69760-4 0  9995
2 38771  98.6548 169.3173 0003410 123.3573 236.7931 14.21433238705969
GPS BIIF-3              
1 38833U 12053A   26113.97246792  .00000040  00000+0  00000+0 0  9997
2 38833  53.5743 145.8203 0177937  65.1328 296.7656  2.00566553 98354
GSAT0103 (GALILEO-FM3)  
1 38857U 12055A   26115.09622636  .00000047  00000+0  00000+0 0  9992
2 38857  55.7743 103.0007 0005916 295.5097  64.4243  1.70473359 84108
