[{"OBJECT_NAME":"GPS BIIR-08","OBJECT_ID":"2003-005A","EPOCH":"2026-04-26T06:24:28.628064","MEAN_MOTION":2.00563332,"ECCENTRICITY":0.01481937,"INCLINATION":54.8927,"RA_OF_ASC_NODE":217.0313,"ARG_OF_PERICENTER":52.9603,"MEAN_ANOMALY":318.0024,"EPHEMERIS_TYPE":0,"CLASSIFICATION_TYPE":"U","NORAD_CAT_ID":27663,"ELEMENT_SET_NO":999,"REV_AT_EPOCH":17027,"BSTAR":0,"MEAN_MOTION_DOT":-4.8e-7,"MEAN_MOTION_DDOT":0},{"OBJECT_NAME":"GPS BIIR-11","OBJECT_ID":"2004-009A","EPOCH":"2026-04-26T12:55:48.508896","MEAN_MOTION":2.00556343,"ECCENTRICITY":0.01136838,"INCLINATION":54.8736,"RA_OF_ASC_NODE":277.7725,"ARG_OF_PERICENTER":170.8393,"MEAN_ANOMALY":190.7377,"EPHEMERIS_TYPE":0,"CLASSIFICATION_TYPE":"U","NORAD_CAT_ID":28190,"ELEMENT_SET_NO":999,"REV_AT_EPOCH":16191,"BSTAR":0,"MEAN_MOTION_DOT":-4.9e-7,"MEAN_MOTION_DDOT":0},{"OBJECT_NAME":"GPS BIIR-13","OBJECT_ID":"2004-045A","EPOCH":"2026-04-26T03:38:42.158112","MEAN_MOTION":2.00553461,"ECCENTRICITY":0.01700773,"INCLINATION":55.1657,"RA_OF_ASC_NODE":326.9919,"ARG_OF_PERICENTER":314.9761,"MEAN_ANOMALY":192.5282,"EPHEMERIS_TYPE":0,"CLASSIFICATION_TYPE":"U","NORAD_CAT_ID":28474,"ELEMENT_SET_NO":999,"REV_AT_EPOCH":15738,"BSTAR":0,"MEAN_MOTION_DOT":-7.3e-7,"MEAN_MOTION_DDOT":0},{"OBJECT_NAME":"GPS BIIR-14M","OBJECT_ID":"2005-038A","EPOCH":"2026-04-26T12:14:48.719040","MEAN_MOTION":2.00569234,"ECCENTRICITY":0.01277815,"INCLINATION":54.9216,"RA_OF_ASC_NODE":275.2615,"ARG_OF_PERICENTER":295.8485,"MEAN_ANOMALY":71.6096,"EPHEMERIS_TYPE":0,"CLASSIFICATION_TYPE":"U","NORAD_CAT_ID":28874,"ELEMENT_SET_NO":999,"REV_AT_EPOCH":15080,"BSTAR":0,"MEAN_MOTION_DOT":-4.9e-7,"MEAN_MOTION_DDOT":0},{"OBJECT_NAME":"METEOSAT-9 (MSG-2)","OBJECT_ID":"2005-049B","EPOCH":"2026-04-26T00:18:11.412576","MEAN_MOTION":1.00274547,"ECCENTRICITY":4.58e-5,"INCLINATION":9.2468,"RA_OF_ASC_NODE":54.6715,"ARG_OF_PERICENTER":338.0288,"MEAN_ANOMALY":231.5157,"EPHEMERIS_TYPE":0,"CLASSIFICATION_TYPE":"U","NORAD_CAT_ID":28912,"ELEMENT_SET_NO":999,"REV_AT_EPOCH":647,"BSTAR":0,"MEAN_MOTION_DOT":1.16e-6,"MEAN_MOTION_DDOT":0},{"OBJECT_NAME":"GPS BIIR-16M","OBJECT_ID":"2006-052A","EPOCH":"2026-04-24T13:40:50.622240","MEAN_MOTION":2.00555028,"ECCENTRICITY":0.00864806,"INCLINATION":54.9441,"RA_OF_ASC_NODE":216.131,"ARG_OF_PERICENTER":90.248,"MEAN_ANOMALY":270.7556,"EPHEMERIS_TYPE":0,"CLASSIFICATION_TYPE":"U","NORAD_CAT_ID":29601,"ELEMENT_SET_NO":999,"REV_AT_EPOCH":14233,"BSTAR":0,"MEAN_MOTION_DOT":-3.8e-7,"MEAN_MOTION_DDOT":0},{"OBJECT_NAME":"GPS BIIR-17M","OBJECT_ID":"2007-047A","EPOCH":"2026-04-26T08:54:02.888928","MEAN_MOTION":2.00557876,"ECCENTRICITY":0.01647759,"INCLINATION":54.0582,"RA_OF_ASC_NODE":82.2,"ARG_OF_PERICENTER":86.4922,"MEAN_ANOMALY":275.3708,"EPHEMERIS_TYPE":0,"CLASSIFICATION_TYPE":"U","NORAD_CAT_ID":32260,"ELEMENT_SET_NO":999,"REV_AT_EPOCH":13577,"BSTAR":0,"MEAN_MOTION_DOT":7.0e-8,"MEAN_MOTION_DDOT":0},{"OBJECT_NAME":"GPS BIIR-18M","OBJECT_ID":"2007-062A","EPOCH":"2026-04-25T22:27:28.749024","MEAN_MOTION":2.00556812,"ECCENTRICITY":0.00345525,"INCLINATION":55.0752,"RA_OF_ASC_NODE":276.2515,"ARG_OF_PERICENTER":162.363,"MEAN_ANOMALY":10.5363,"EPHEMERIS_TYPE":0,"CLASSIFICATION_TYPE":"U","NORAD_CAT_ID":32384,"ELEMENT_SET_NO":999,"REV_AT_EPOCH":13446,"BSTAR":0,"MEAN_MOTION_DOT":-4.2e-7,"MEAN_MOTION_DDOT":0},{"OBJECT_NAME":"GOES 14","OBJECT_ID":"2009-033A","EPOCH":"2026-04-26T19:30:45.771264","MEAN_MOTION":1.00116648,"ECCENTRICITY":0.0001746,"INCLINATION":1.5594,"RA_OF_ASC_NODE":83.6284,"ARG_OF_PERICENTER":313.9108,"MEAN_ANOMALY":280.5383,"EPHEMERIS_TYPE":0,"CLASSIFICATION_TYPE":"U","NORAD_CAT_ID":35491,"ELEMENT_SET_NO":999,"REV_AT_EPOCH":607,"BSTAR":0,"MEAN_MOTION_DOT":-5.9e-7,"MEAN_MOTION_DDOT":0},{"OBJECT_NAME":"GOES 15","OBJECT_ID":"2010-008A","EPOCH":"2026-04-26T21:21:19.159776","MEAN_MOTION":1.00272498,"ECCENTRICITY":0.0003979,"INCLINATION":1.1427,"RA_OF_ASC_NODE":83.7781,"ARG_OF_PERICENTER":23.7278,"MEAN_ANOMALY":130.9671,"EPHEMERIS_TYPE":0,"CLASSIFICATION_TYPE":"U","NORAD_CAT_ID":36411,"ELEMENT_SET_NO":999,"REV_AT_EPOCH":5912,"BSTAR":0,"MEAN_MOTION_DOT":1.2e-7,"MEAN_MOTION_DDOT":0},{"OBJECT_NAME":"GSAT0101 (GALILEO-PFM)","OBJECT_ID":"2011-060A","EPOCH":"2026-04-26T05:29:44.951136","MEAN_MOTION":1.70475694,"ECCENTRICITY":0.0003765,"INCLINATION":57.0096,"RA_OF_ASC_NODE":343.1709,"ARG_OF_PERICENTER":27.25,"MEAN_ANOMALY":332.8105,"EPHEMERIS_TYPE":0,"CLASSIFICATION_TYPE":"U","NORAD_CAT_ID":37846,"ELEMENT_SET_NO":999,"REV_AT_EPOCH":9023,"BSTAR":0,"MEAN_MOTION_DOT":-9.1e-7,"MEAN_MOTION_DDOT":0},{"OBJECT_NAME":"GSAT0102 (GALILEO-FM2)","OBJECT_ID":"2011-060B","EPOCH":"2026-04-26T10:51:47.390112","MEAN_MOTION":1.70475958,"ECCENTRICITY":0.00047089,"INCLINATION":57.0107,"RA_OF_ASC_NODE":343.1653,"ARG_OF_PERICENTER":9.1421,"MEAN_ANOMALY":173.7389,"EPHEMERIS_TYPE":0,"CLASSIFICATION_TYPE":"U","NORAD_CAT_ID":37847,"ELEMENT_SET_NO":999,"REV_AT_EPOCH":9024,"BSTAR":0,"MEAN_MOTION_DOT":-9.1e-7,"MEAN_MOTION_DDOT":0},{"OBJECT_NAME":"LUCH 5A","OBJECT_ID":"2011-074B","EPOCH":"2026-04-26T21:26:57.536736","MEAN_MOTION":1.00272956,"ECCENTRICITY":0.0002737,"INCLINATION":8.6266,"RA_OF_ASC_NODE":74.5466,"ARG_OF_PERICENTER":304.8764,"MEAN_ANOMALY":324.1316,"EPHEMERIS_TYPE":0,"CLASSIFICATION_TYPE":"U","NORAD_CAT_ID":37951,"ELEMENT_SET_NO":999,"REV_AT_EPOCH":5253,"BSTAR":0,"MEAN_MOTION_DOT":-5.5e-7,"MEAN_MOTION_DDOT":0},{"OBJECT_NAME":"METEOSAT-10 (MSG-3)","OBJECT_ID":"2012-035B","EPOCH":"2026-04-26T15:16:45.671808","MEAN_MOTION":1.00267982,"ECCENTRICITY":0.0002095,"INCLINATION":4.5523,"RA_OF_ASC_NODE":61.2377,"ARG_OF_PERICENTER":312.6097,"MEAN_ANOMALY":70.1584,"EPHEMERIS_TYPE":0,"CLASSIFICATION_TYPE":"U","NORAD_CAT_ID":38552,"ELEMENT_SET_NO":999,"REV_AT_EPOCH":5034,"BSTAR":0,"MEAN_MOTION_DOT":-1.5e-7,"MEAN_MOTION_DDOT":0},{"OBJECT_NAME":"SARSAT 13 (METOP-B)","OBJECT_ID":"2012-049A","EPOCH":"2026-04-26T19:17:27.767040","MEAN_MOTION":14.21433238,"ECCENTRICITY":0.000341,"INCLINATION":98.6548,"RA_OF_ASC_NODE":169.3173,"ARG_OF_PERICENTER":123.3573,"MEAN_ANOMALY":236.7931,"EPHEMERIS_TYPE":0,"CLASSIFICATION_TYPE":"U","NORAD_CAT_ID":38771,"ELEMENT_SET_NO":999,"REV_AT_EPOCH":70596,"BSTAR":6.976e-5,"MEAN_MOTION_DOT":1.09e-6,"MEAN_MOTION_DDOT":0},{"OBJECT_NAME":"GPS BIIF-3","OBJECT_ID":"2012-053A","EPOCH":"2026-04-23T23:20:21.228288","MEAN_MOTION":2.00566553,"ECCENTRICITY":0.0177937,"INCLINATION":53.5743,"RA_OF_ASC_NODE":145.8203,"ARG_OF_PERICENTER":65.1328,"MEAN_ANOMALY":296.7656,"EPHEMERIS_TYPE":0,"CLASSIFICATION_TYPE":"U","NORAD_CAT_ID":38833,"ELEMENT_SET_NO":999,"REV_AT_EPOCH":9835,"BSTAR":0,"MEAN_MOTION_DOT":4.0e-7,"MEAN_MOTION_DDOT":0},{"OBJECT_NAME":"GSAT0103 (GALILEO-FM3)","OBJECT_ID":"2012-055A","EPOCH":"2026-04-25T02:18:33.957504","MEAN_MOTION":1.70473359,"ECCENTRICITY":0.0005916,"INCLINATION":55.7743,"RA_OF_ASC_NODE":103.0007,"ARG_OF_PERICENTER":295.5097,"MEAN_ANOMALY":64.4243,"EPHEMERIS_TYPE":0,"CLASSIFICATION_TYPE":"U","NORAD_CAT_ID":38857,"ELEMENT_SET_NO":999,"REV_AT_EPOCH":8410,"BSTAR":0,"MEAN_MOTION_DOT":4.7e-7,"MEAN_MOTION_DDOT":0}]
